X,Y,NAME,ADDRESS,CITY,STATE,ZIP,COUNTY_NAME,LIC_TYPE,HOSP_BEDS,BASS_BEDS,PSY_HOSP_BEDS,NH_BEDS,BCH_BEDS,HOSP18_BEDS,PSY18_BEDS,SNF_BEDS,SNFNF_BEDS,NF1_BEDS,NF2_BEDS
467832.0672,4975376.715,AUGUSTANA CHAPEL VIEW CARE CTR,615 MINNETONKA MILLS ROAD,HOPKINS,MN,55343,HENNEPIN,NONPROFIT CORPORATION,0,0,0,108,0,0,0,0,108,0,0
473968.4228,4970264.831,AURORA ON FRANCE,6500 FRANCE AVENUE SOUTH,EDINA,MN,55435,HENNEPIN,LIMITED LIABILITY COMPANY,0,0,0,63,0,0,0,0,63,0,0
481544.4289,4984287.508,BETHANY RESIDENCE AND REHAB CT,2309 HAYES STREET NE,MINNEAPOLIS,MN,55418,HENNEPIN,LIMITED LIABILITY COMPANY,0,0,0,50,0,0,0,0,50,0,0
436944.1903,4965836.515,AUBURN HOME IN WACONIA,594 CHERRY DRIVE,WACONIA,MN,55387,CARVER,NONPROFIT CORPORATION,0,0,0,37,0,0,0,0,37,0,0
470392.6731,4981326.863,BROOKVIEW A VILLA CENTER,7505 COUNTRY CLUB DRIVE,GOLDEN VALLEY,MN,55427,HENNEPIN,LIMITED LIABILITY COMPANY,0,0,0,104,0,0,0,0,104,0,0
465710.5271,4966643.056,CASTLE RIDGE CARE CENTER,625 PRAIRIE CENTER DRIVE,EDEN PRAIRIE,MN,55344,HENNEPIN,NONPROFIT CORPORATION,0,0,0,60,0,0,0,0,60,0,0
483369.929,4953724.782,AUGUSTANA HEALTH CC OF APPLE,14650 GARRETT AVENUE,APPLE VALLEY,MN,55124,DAKOTA,NONPROFIT CORPORATION,0,0,0,178,0,0,0,0,178,0,0
479113.1209,4982585.426,CATHOLIC ELDERCARE ON MAIN,817 MAIN STREET NE,MINNEAPOLIS,MN,55413,HENNEPIN,NONPROFIT CORPORATION,0,0,0,174,0,0,0,0,174,0,0
472401.9183,4984770.222,CENTENNIAL GARDENS,3245 VERA CRUZ AVENUE NORTH,CRYSTAL,MN,55422,HENNEPIN,LIMITED LIABILITY COMPANY,0,0,0,130,0,0,0,0,130,0,0
387848.0673,5034817.904,ASSUMPTION HOME,715 1ST STREET NORTH,COLD SPRING,MN,56320,STEARNS,CHURCH RELATED,0,0,0,76,0,0,0,0,76,0,0
412506.0071,5013256.979,ANNANDALE CARE CENTER,500 PARK STREET EAST,ANNANDALE,MN,55302,WRIGHT,NONPROFIT CORPORATION,0,0,0,60,0,0,0,0,60,0,0
483789.3086,4990641.979,BEACON HAVEN,1200 LONG LAKE ROAD,NEW BRIGHTON,MN,55112,RAMSEY,NONPROFIT CORPORATION,0,0,0,6,0,0,0,0,0,0,0
452599.5062,4959666.963,AUBURN MANOR,501 OAK STREET NORTH,CHASKA,MN,55318,CARVER,NONPROFIT CORPORATION,0,0,0,61,0,0,0,0,61,0,0
569638.0142,5179679.998,BAYSHORE RESIDENCE & REHAB CTR,1601 ST. LOUIS AVENUE,DULUTH,MN,55802,SAINT LOUIS,LIMITED LIABILITY COMPANY,0,0,0,139,0,0,0,0,139,0,0
569624.6678,5179671.381,BAYSHORE HEALTH CENTER RULE 80,1601 ST LOUIS AVENUE,DULUTH,MN,55802,SAINT LOUIS,NONPROFIT CORPORATION,0,0,0,200,0,0,0,0,200,0,0
482442.2102,4990280.794,BENEDICTINE HLTH CTR INNSBRUCK,1101 BLACK OAK DRIVE,NEW BRIGHTON,MN,55112,RAMSEY,CHURCH RELATED,0,0,0,105,0,0,0,0,105,0,0
469831.8536,5006466.834,ANOKA REHAB & LIVING CENTER,3000 4TH AVENUE,ANOKA,MN,55303,ANOKA,NONPROFIT CORPORATION,0,0,0,120,0,0,0,0,120,0,0
343020.7509,5034777.909,BELGRADE NURSING HOME,103 SCHOOL STREET,BELGRADE,MN,56312,STEARNS,NONPROFIT CORPORATION,0,0,0,44,0,0,0,0,44,0,0
568188.4949,5184864.404,BENEDICTINE HEALTH CENTER,935 KENWOOD AVENUE,DULUTH,MN,55811,SAINT LOUIS,NONPROFIT CORPORATION,0,0,0,96,0,0,0,0,96,0,0
490712.0785,4977205.576,THE EMERALDS AT ST. PAUL LLC,420 MARSHALL AVENUE,ST. PAUL,MN,55102,RAMSEY,LIMITED LIABILITY COMPANY,0,0,0,116,0,0,0,0,116,0,0
476236.97,5003573.982,CAMILIA ROSE CARE CENTER LLC,11800 XEON BOULEVARD NW,COON RAPIDS,MN,55448,ANOKA,LIMITED LIABILITY COMPANY,0,0,0,80,0,0,0,0,80,0,0
492637.2642,4978102.725,CAPITOL VIEW TRANSITIONAL CARE,640 JACKSON STREET,ST. PAUL,MN,55101,RAMSEY,NONPROFIT CORPORATION,0,0,0,32,0,0,0,32,0,0,0
485885.8168,4974695.673,CARONDELET VILLAGE CARE CENTER,525 FAIRVIEW AVENUE SOUTH,ST. PAUL,MN,55116,RAMSEY,NONPROFIT CORPORATION,0,0,0,45,0,0,0,0,45,0,0
478988.3936,4979267.185,BENEDICTINE HEALTH CTR OF MPLS,618 EAST 17TH STREET,MINNEAPOLIS,MN,55404,HENNEPIN,NONPROFIT CORPORATION,0,0,0,95,0,0,0,0,95,0,0
493377.4791,4975213.538,CERENITY CARE CTR ON HUMBOLDT,512 HUMBOLDT AVENUE,ST. PAUL,MN,55107,RAMSEY,NONPROFIT CORPORATION,0,0,0,117,0,0,0,0,117,0,0
495696.4967,4977154.665,CERENITY MARIAN ST. PAUL LLC,200 EARL STREET,ST. PAUL,MN,55106,RAMSEY,OTHER NONPROFIT OWNERSHIP,0,0,0,90,0,0,0,0,90,0,0
417198.6589,4980214.161,BENEDICTINE LVG COMM WINSTED,551 4TH STREET NORTH,WINSTED,MN,55395,MCLEOD,NONPROFIT CORPORATION,0,0,0,65,0,0,0,0,65,0,0
438951.6779,5016622.73,CENTRACARE HEALTH MONTICELLO,1013 HART BOULEVARD #1,MONTICELLO,MN,55362,WRIGHT,OTHER NONPROFIT OWNERSHIP,39,12,0,89,0,0,0,0,89,0,0
358979.325,5059498.199,CENTRACARE HEALTH SYS MELROSE,525 MAIN STREET WEST,MELROSE,MN,56352,STEARNS,NONPROFIT CORPORATION,28,6,0,75,0,0,0,0,75,0,0
263685.3608,5009564.798,APPLETON MUNICIPAL HOSPITAL,30 SOUTH BEHL STREET,APPLETON,MN,56208,SWIFT,CITY,15,1,0,50,0,0,0,0,50,0,0
474047.5932,4982850.957,COURAGE KENNY REHAB INST TRP,3915 GOLDEN VALLEY ROAD,GOLDEN VALLEY,MN,55422,HENNEPIN,NONPROFIT CORPORATION,0,0,0,56,0,0,0,0,56,0,0
478941.1688,4978100.66,EBENEZER CARE CENTER,2545 PORTLAND AVENUE SOUTH,MINNEAPOLIS,MN,55404,HENNEPIN,NONPROFIT CORPORATION,0,0,0,34,85,0,0,0,34,0,85
498381.1397,4991999.479,CERENITY CARE CENTER WBL,1900 WEBBER STREET,WHITE BEAR LAKE,MN,55110,RAMSEY,CORPORATION,0,0,0,138,0,0,0,0,138,0,0
474782.0523,4970778.007,EDENBROOK OF EDINA,6200 XERXES AVENUE SOUTH,EDINA,MN,55423,HENNEPIN,LIMITED LIABILITY COMPANY,0,0,0,85,0,0,0,0,85,0,0
510658.2342,4952976.511,AUGUSTANA CARE HASTINGS HEALTH,930 WEST 16TH STREET,HASTINGS,MN,55033,DAKOTA,NONPROFIT CORPORATION,0,0,0,80,0,0,0,0,80,0,0
481423.8787,4988416.998,CREST VIEW LUTHERAN HOME,4444 RESERVOIR BOULEVARD NE,COLUMBIA HEIGHTS,MN,55421,ANOKA,NONPROFIT CORPORATION,0,0,0,122,0,0,0,0,122,0,0
478434.4374,4955434.089,EBENEZER RIDGES GERIATRIC CC,13820 COMMUNITY DRIVE,BURNSVILLE,MN,55337,DAKOTA,NONPROFIT CORPORATION,0,0,0,114,0,0,0,0,114,0,0
441999.8635,4916130.163,CENTRAL HEALTH CARE,444 NORTH CORDOVA AVENUE,LE CENTER,MN,56057,LESUEUR,CORPORATION,0,0,0,40,0,0,0,0,40,0,0
481313.3022,4979231.892,FAIRVIEW UNIVERSITY TRANS SVCS,2450 RIVERSIDE AVENUE SOUTH,MINNEAPOLIS,MN,55454,HENNEPIN,NONPROFIT CORPORATION,0,0,0,28,0,0,0,0,28,0,0
485874.7373,4977989.19,EPISCOPAL CHURCH HOME OF MN,1879 FERONIA AVENUE,ST. PAUL,MN,55104,RAMSEY,NONPROFIT CORPORATION,0,0,0,81,50,0,0,0,81,0,50
566514.3341,5185180.648,CHRIS JENSEN HLTH & REHAB CTR,2501 RICE LAKE ROAD,DULUTH,MN,55811,SAINT LOUIS,LIMITED LIABILITY COMPANY,0,0,0,170,0,0,0,0,170,0,0
460121.1652,4979708.788,FOLKESTONE,100 PROMENADE AVENUE,WAYZATA,MN,55391,HENNEPIN,NONPROFIT CORPORATION,0,0,0,30,0,0,0,30,0,0,0
472082.279,4982550.984,COVENANT LVG CARE & REHAB CTR,5825 ST. CROIX AVENUE,GOLDEN VALLEY,MN,55422,HENNEPIN,NONPROFIT CORPORATION,0,0,0,88,0,0,0,38,0,0,0
469082.6576,4967117.041,FRIENDSHIP VILLAGE OF BLOOMING,8100 HIGHWOOD DRIVE,BLOOMINGTON,MN,55438,HENNEPIN,NONPROFIT CORPORATION,0,0,0,66,53,0,0,66,0,0,0
405622.7827,4992667.674,COKATO MANOR,182 SUNSET AVENUE,COKATO,MN,55321,WRIGHT,NONPROFIT CORPORATION,0,0,0,56,0,0,0,0,56,0,0
523990.3738,5300030.639,COOK HOSPITAL,10 5TH STREET SOUTHEAST,COOK,MN,55723,SAINT LOUIS,HOSPITAL DISTRICT OR AUTHORITY,14,0,0,28,0,0,0,0,28,0,0
485859.6971,4978094.138,EPISCOPAL CHURCH HOME GARDENS,1860 UNIVERSITY AVENUE WEST,ST. PAUL,MN,55104,RAMSEY,LIMITED LIABILITY COMPANY,0,0,0,60,0,0,0,0,60,0,0
516801.627,5259447.147,CORNERSTONE VILLA,1000 FOREST STREET,BUHL,MN,55713,SAINT LOUIS,NONPROFIT CORPORATION,0,0,0,44,0,0,0,0,44,0,0
407312.6144,5052018.657,COUNTRY MANOR HLTH & REHAB CTR,520 1ST STREET NE,SARTELL,MN,56377,BENTON,LIMITED LIABILITY COMPANY,0,0,0,165,0,0,0,0,165,0,0
541105.4283,5175450.945,COMMUNITY MEMORIAL HOSPITAL,512 SKYLINE BOULEVARD,CLOQUET,MN,55720,CARLTON,NONPROFIT CORPORATION,36,6,0,44,0,0,0,0,44,0,0
542751.0846,4874862.891,CHARTER HOUSE INC,211 2ND STREET NW,ROCHESTER,MN,55901,OLMSTED,NONPROFIT CORPORATION,0,0,0,32,0,0,0,32,0,0,0
513286.4748,4986375.043,GABLES OF BOUTWELLS LANDING,13575 58TH STREET,OAK PARK HEIGHTS,MN,55082,WASHINGTON,LIMITED LIABILITY COMPANY,0,0,0,108,0,0,0,0,108,0,0
473825.7585,4985721.996,GOOD SAM SPECIALTY CARE COMM,3815 WEST BROADWAY AVENUE,ROBBINSDALE,MN,55422,HENNEPIN,NONPROFIT CORPORATION,0,0,0,96,0,0,0,0,96,0,0
533788.2348,5264287.884,ESSENTIA HEALTH VIRGINIA,901 9TH STREET NORTH,VIRGINIA,MN,55792,SAINT LOUIS,OTHER NONPROFIT OWNERSHIP,83,6,0,77,0,83,0,0,77,0,0
491204.5424,4977915.98,GALTIER A VILLA CENTER,445 GALTIER STREET,ST. PAUL,MN,55103,RAMSEY,LIMITED LIABILITY COMPANY,0,0,0,107,0,0,0,0,107,0,0
428818.1396,5056680.298,THE GARDENS AT FOLEY LLC,253 PINE STREET,FOLEY,MN,56329,BENTON,LIMITED LIABILITY COMPANY,0,0,0,78,0,0,0,0,78,0,0
493933.6585,4969731.384,GOOD SAM INVER GROVE HEIGHTS,1301 50TH STREET EAST,INVER GROVE HEIGHTS,MN,55077,DAKOTA,NONPROFIT CORPORATION,0,0,0,46,0,0,0,0,46,0,0
445704.131,5152827.601,AITKIN HEALTH SERVICES,301 MINNESOTA AVENUE SOUTH,AITKIN,MN,56431,AITKIN,NONPROFIT CORPORATION,0,0,0,44,0,0,0,0,44,0,0
408724.1965,4958979.771,GLENCOE REGIONAL HEALTH SRVCS,1805 HENNEPIN AVENUE NORTH,GLENCOE,MN,55336,MCLEOD,NONPROFIT CORPORATION,49,8,0,108,0,0,0,0,108,0,0
468256.3564,4973225.765,HOPKINS HEALTH SERVICES,725 2ND AVENUE SOUTH,HOPKINS,MN,55343,HENNEPIN,LIMITED LIABILITY COMPANY,0,0,0,118,0,0,0,0,118,0,0
571541.8694,5177013.712,FRANCISCAN HEALTH CENTER,3910 MINNESOTA AVENUE,DULUTH,MN,55802,SAINT LOUIS,NONPROFIT CORPORATION,0,0,0,47,0,0,0,0,47,0,0
278990.6501,4925358.539,AVERA MARSHALL REG MED CENTER,300 SOUTH BRUCE STREET,MARSHALL,MN,56258,LYON,NONPROFIT CORPORATION,49,8,0,76,0,0,0,0,76,0,0
464282.005,4984203.516,INTERLUDE,2775 CAMPUS DRIVE NORTH,PLYMOUTH,MN,55441,HENNEPIN,NONPROFIT CORPORATION,0,0,0,50,0,0,0,0,50,0,0
474219.6911,4977922.916,JONES HARRISON RESIDENCE,3700 CEDAR LAKE AVENUE,MINNEAPOLIS,MN,55416,HENNEPIN,NONPROFIT CORPORATION,0,0,0,157,0,0,0,0,157,0,0
514170.6504,4990234.552,GOOD SAM SOCIETY STILLWATER,1119 OWENS STREET NORTH,STILLWATER,MN,55082,WASHINGTON,NONPROFIT CORPORATION,0,0,0,68,0,0,0,0,68,0,0
457406.595,4974957.851,LAKE MINNETONKA CARE CENTER,20395 SUMMERVILLE ROAD,DEEPHAVEN,MN,55331,HENNEPIN,CORPORATION,0,0,0,21,0,0,0,0,21,0,0
469808.5249,4983917.772,GOOD SAM AMBASSADOR,8100 MEDICINE LAKE ROAD,NEW HOPE,MN,55427,HENNEPIN,NONPROFIT CORPORATION,0,0,0,77,0,0,0,0,77,0,0
449557.17,4976020.702,LAKE MINNETONKA SHORES,4527 SHORELINE DRIVE,SPRING PARK,MN,55384,HENNEPIN,NONPROFIT CORPORATION,0,0,0,136,0,0,0,0,136,0,0
413881.562,4940262.506,GOOD SAM ARLINGTON,411 7TH AVENUE NW,ARLINGTON,MN,55307,SIBLEY,NONPROFIT CORPORATION,0,0,0,27,0,0,0,0,27,0,0
414992.2307,4990400.131,GOOD SAM SOCIETY HOWARD LAKE,413 13TH AVENUE,HOWARD LAKE,MN,55349,WRIGHT,NONPROFIT CORPORATION,0,0,0,32,0,0,0,0,32,0,0
250180.3758,4906842.922,AVERA TYLER HOSPITAL,240 WILLOW STREET,TYLER,MN,56178,LINCOLN,NONPROFIT CORPORATION,20,1,0,30,0,0,0,0,30,0,0
391128.3994,4932515.474,GOOD SAM WINTHROP,506 HIGH STREET,WINTHROP,MN,55396,SIBLEY,NONPROFIT CORPORATION,0,0,0,32,0,0,0,0,32,0,0
472395.5824,4991806.493,MARANATHA CARE CENTER,5409 69TH AVENUE NORTH,BROOKLYN CENTER,MN,55429,HENNEPIN,NONPROFIT CORPORATION,0,0,0,97,0,0,0,0,97,0,0
493878.1666,4982813.632,GOOD SAM SOC MAPLEWOOD,550 EAST ROSELAWN AVENUE,MAPLEWOOD,MN,55117,RAMSEY,NONPROFIT CORPORATION,0,0,0,71,0,0,0,0,71,0,0
408262.7426,5050640.879,GOOD SHEPHERD LUTHERAN HOME,1115 4TH AVENUE NORTH,SAUK RAPIDS,MN,56379,BENTON,OTHER NONPROFIT OWNERSHIP,0,0,0,162,0,0,0,0,162,0,0
456227.2839,5017099.95,GUARDIAN ANGELS CARE CENTER,400 EVANS AVENUE,ELK RIVER,MN,55330,SHERBURNE,CHURCH RELATED,0,0,0,120,0,0,0,0,120,0,0
392211.9736,4968785.863,HARMONY RIVER LIVING CENTER,1555 SHERWOOD STREET SE,HUTCHINSON,MN,55350,MCLEOD,NONPROFIT CORPORATION,0,0,0,120,0,0,0,0,120,0,0
504453.6559,5253389.017,GUARDIAN ANGELS HEALTH & REHAB,1500 3RD AVENUE EAST,HIBBING,MN,55746,SAINT LOUIS,NONPROFIT CORPORATION,0,0,0,90,0,0,0,0,90,0,0
416362.1177,4889290.422,HILLCREST CARE & REHAB CENTER,714 SOUTHBEND AVENUE,MANKATO,MN,56001,BLUE EARTH,LIMITED LIABILITY COMPANY,0,0,0,85,0,0,0,0,85,0,0
447681.4657,4983834.948,HAVEN HOMES OF MAPLE PLAIN,1520 WYMAN AVENUE,MAPLE PLAIN,MN,55359,HENNEPIN,NONPROFIT CORPORATION,0,0,0,52,0,0,0,0,52,0,0
437398.7231,4965838.159,GOOD SAM WACONIA&WESTVIEW ACRE,333 5TH STREET WEST,WACONIA,MN,55387,CARVER,NONPROFIT CORPORATION,0,0,0,90,0,0,0,0,90,0,0
500492.8686,4902030.1,KENYON SUNSET HOME,127 GUNDERSON BOULEVARD,KENYON,MN,55946,GOODHUE,CHURCH RELATED,0,0,0,21,0,0,0,0,21,0,0
573095.8717,5185761.676,ECUMEN LAKESHORE,4002 LONDON ROAD,DULUTH,MN,55804,SAINT LOUIS,NONPROFIT CORPORATION,0,0,0,60,0,0,0,0,60,0,0
454542.5753,4933546.18,MALA STRANA CARE & REHAB CTR,1001 COLUMBUS AVENUE NORTH,NEW PRAGUE,MN,56071,SCOTT,CORPORATION,0,0,0,84,0,0,0,0,84,0,0
487371.1064,4980724.274,LYNGBLOMSTEN CARE CENTER,1415 ALMOND AVENUE,ST. PAUL,MN,55108,RAMSEY,CHURCH RELATED,0,0,0,225,0,0,0,0,225,0,0
444643.3633,5153631.251,AICOTA HEALTH CARE CENTER,850 2ND STREET NW,AITKIN,MN,56431,AITKIN,CORPORATION,0,0,0,75,0,0,0,0,75,0,0
431477.3915,5002016.515,LAKE RIDGE CARE CTR OF BUFFALO,310 LAKE BOULEVARD SOUTH,BUFFALO,MN,55313,WRIGHT,NONPROFIT CORPORATION,0,0,0,56,0,0,0,0,56,0,0
419469.1196,4888287.043,LAURELS PEAK CARE & REHAB CTR,700 JAMES AVENUE,MANKATO,MN,56001,BLUE EARTH,LIMITED LIABILITY COMPANY,0,0,0,65,0,0,0,0,65,0,0
395644.7616,5092399.041,LITTLE FALLS CARE CENTER,1200 1ST AVENUE NE,LITTLE FALLS,MN,56345,MORRISON,NONPROFIT CORPORATION,0,0,0,64,0,0,0,0,64,0,0
479748.2691,4994806.251,INTERLUDE RESTORATIVE SUITES,520 OSBORNE ROAD NE,FRIDLEY,MN,55432,ANOKA,OTHER NONPROFIT OWNERSHIP,0,0,0,50,0,0,0,0,50,0,0
233027.8487,5244302.147,BENEDICTINE CARE COMMUNITY,201 9TH STREET WEST,ADA,MN,56510,NORMAN,NONPROFIT CORPORATION,0,0,0,49,0,0,0,0,49,0,0
486942.9736,4972379.02,HIGHLAND CHATEAU HCC,2319 WEST 7TH STREET,ST PAUL,MN,55116,RAMSEY,LIMITED LIABILITY COMPANY,0,0,0,64,0,0,0,0,64,0,0
543948.069,5168767.277,INTERFAITH CARE CENTER,811 3RD STREET,CARLTON,MN,55718,CARLTON,CHURCH RELATED,0,0,0,96,0,0,0,0,96,0,0
540469.2439,4879175.598,MADONNA TOWERS OF ROCHESTER,4001 19TH AVENUE NW,ROCHESTER,MN,55901,OLMSTED,CHURCH RELATED,0,0,0,62,0,0,0,2,60,0,0
517409.1847,5143186.859,AUGUSTANA MERCY CARE CENTER,710 SOUTH KENWOOD AVENUE,MOOSE LAKE,MN,55767,CARLTON,LIMITED LIABILITY COMPANY,0,0,0,72,0,0,0,0,72,0,0
491684.1025,4976195.524,LITTLE SISTERS OF THE POOR,330 SOUTH EXCHANGE STREET,ST. PAUL,MN,55102,RAMSEY,NONPROFIT CORPORATION,0,0,0,40,33,0,0,0,40,0,33
314629.3395,5083660.613,BETHANY ON THE LAKE LLC,1020 LARK STREET,ALEXANDRIA,MN,56308,DOUGLAS,LIMITED LIABILITY COMPANY,0,0,0,83,0,0,0,0,83,0,0
498433.0795,4984159.173,MAPLEWOOD CARE CENTER,1900 SHERREN AVENUE,MAPLEWOOD,MN,55109,RAMSEY,NONPROFIT CORPORATION,0,0,0,128,0,0,0,0,128,0,0
540717.1191,4876876.561,EDENBROOK OF ROCHESTER,1875 19TH STREET NW,ROCHESTER,MN,55901,OLMSTED,LIMITED LIABILITY COMPANY,0,0,0,81,0,0,0,0,81,0,0
451619.1899,5288436.093,BIGFORK VALLEY COMMUNITIES,258 PINE TREE DRIVE PO BOX 258,BIGFORK,MN,56628,ITASCA,HOSPITAL DISTRICT OR AUTHORITY,0,0,0,40,0,0,0,0,40,0,0
479801.0937,4963260.99,MARTIN LUTHER CARE CENTER,1401 EAST 100TH STREET,BLOOMINGTON,MN,55425,HENNEPIN,LIMITED LIABILITY COMPANY,0,0,0,137,0,0,0,0,137,0,0
347395.9863,5018641.561,GLENOAKS SENIOR LIVING CAMPUS,100 GLENOAKS DRIVE,NEW LONDON,MN,56273,KANDIYOHI,NONPROFIT CORPORATION,0,0,0,52,0,0,0,0,52,0,0
337326.2372,4997270.816,CARRIS HLTH CC THERAPY SUITES,1801 WILLMAR AVENUE SW,WILLMAR,MN,56201,KANDIYOHI,OTHER NONPROFIT OWNERSHIP,0,0,0,78,0,0,0,0,78,0,0
201579.209,5056041.269,BROWNS VALLEY HEALTH CENTER,114 JEFFERSON STREET SOUTH,BROWNS VALLEY,MN,56219,TRAVERSE,NONPROFIT CORPORATION,0,0,0,41,0,0,0,0,41,0,0
500250.3482,5018635.007,MEADOWS ON FAIRVIEW,25565 FAIRVIEW AVENUE,WYOMING,MN,55092,CHISAGO,NONPROFIT CORPORATION,0,0,0,14,0,0,0,0,14,0,0
621511.8169,4832811.769,CALEDONIA REHAB & RETIREMENT,425 NORTH BADGER STREET,CALEDONIA,MN,55921,HOUSTON,LIMITED LIABILITY COMPANY,0,0,0,49,0,0,0,0,49,0,0
472548.022,4960339.284,MINNESOTA MASONIC HOME CARE,11501 MASONIC HOME DRIVE,BLOOMINGTON,MN,55437,HENNEPIN,NONPROFIT CORPORATION,0,0,0,214,0,0,0,0,214,0,0
483956.2503,4973175.166,MN VETERANS HOME MINNEAPOLIS,5101 MINNEHAHA AVENUE SOUTH,MINNEAPOLIS,MN,55417,HENNEPIN,STATE,0,0,0,341,50,0,0,0,300,0,0
477292.9486,4972150.826,MOUNT OLIVET CAREVIEW HOME,5517 LYNDALE AVENUE SOUTH,MINNEAPOLIS,MN,55419,HENNEPIN,NONPROFIT CORPORATION,0,0,0,155,0,0,0,0,155,0,0
377868.8945,5053964.855,MOTHER OF MERCY SENIOR LIVING,230 CHURCH STREET BOX 676,ALBANY,MN,56307,STEARNS,NONPROFIT CORPORATION,0,0,0,70,0,0,0,0,70,0,0
492533.2265,4980278.839,NEW HARMONY CARE & REHAB CTR,135 GERANIUM AVENUE EAST,ST PAUL,MN,55117,RAMSEY,CHURCH RELATED,0,0,0,76,0,0,0,0,76,0,0
469340.0028,4988795.966,NORTH RIDGE HEALTH AND REHAB,5430 BOONE AVENUE NORTH,NEW HOPE,MN,55428,HENNEPIN,LIMITED LIABILITY COMPANY,0,0,0,320,0,0,0,0,320,0,0
365664.1587,5025979.608,CENTRACARE HEALTH PAYNESVILLE,200 WEST 1ST STREET,PAYNESVILLE,MN,56362,STEARNS,LIMITED LIABILITY COMPANY,30,6,0,40,0,0,0,0,40,0,0
484738.6564,4989988.857,NEW BRIGHTON CARE CENTER,805 6TH AVENUE NORTHWEST,NEW BRIGHTON,MN,55112,RAMSEY,CORPORATION,0,0,0,57,0,0,0,0,57,0,0
485240.8675,4990030.544,NEW BRIGHTON A VILLA CENTER,825 1ST AVENUE NORTHWEST,NEW BRIGHTON,MN,55112,RAMSEY,LIMITED LIABILITY COMPANY,0,0,0,99,0,0,0,0,99,0,0
466545.9466,4985069.306,MISSION NURSING HOME,3401 E MEDICINE LAKE BOULEVARD,PLYMOUTH,MN,55441,HENNEPIN,NONPROFIT CORPORATION,0,0,0,90,0,0,0,0,90,0,0
584419.6285,5305868.219,BOUNDARY WATERS CARE CENTER,200 WEST CONAN STREET,ELY,MN,55731,SAINT LOUIS,NONPROFIT CORPORATION,0,0,0,42,0,0,0,0,42,0,0
421135.5754,4890417.616,OAKLAWN CARE & REHAB CENTER,201 OAKLAWN AVENUE,MANKATO,MN,56001,BLUE EARTH,LIMITED LIABILITY COMPANY,0,0,0,70,0,0,0,0,70,0,0
475654.8309,4963446.98,PRESBYTERIAN HOMES BLOOMINGTON,9889 PENN AVENUE SOUTH,BLOOMINGTON,MN,55431,HENNEPIN,NONPROFIT CORPORATION,0,0,0,98,0,0,0,0,98,0,0
484791.1288,4924452.604,NORTHFIELD CITY HOSPITAL & NSG,2000 NORTH AVENUE,NORTHFIELD,MN,55057,DAKOTA,CITY,37,12,0,40,0,37,0,0,40,0,0
481115.1842,4975771.545,PROVIDENCE PLACE,3720 23RD AVENUE SOUTH,MINNEAPOLIS,MN,55407,HENNEPIN,NONPROFIT CORPORATION,0,0,0,190,0,0,0,0,190,0,0
417671.4446,4890522.521,PATHSTONE LIVING,718 MOUND AVENUE,MANKATO,MN,56001,BLUE EARTH,NONPROFIT CORPORATION,0,0,0,69,0,0,0,0,69,0,0
476321.397,4999589.993,PARK RIVER ESTATES CARE CENTER,9899 AVOCET STREET NW,COON RAPIDS,MN,55433,ANOKA,CORPORATION,0,0,0,99,0,0,0,0,99,0,0
414741.8235,5092234.326,PIERZ VILLA INC,119 FAUST STREET SE,PIERZ,MN,56364,MORRISON,CORPORATION,0,0,0,50,0,0,0,0,50,0,0
528094.4054,4894918.356,PINE HAVEN CARE CENTER INC,210 3RD STREET NW,PINE ISLAND,MN,55963,GOODHUE,NONPROFIT CORPORATION,0,0,0,70,0,0,0,0,70,0,0
478871.815,4967790.15,RICHFIELD A VILLA CENTER,7727 PORTLAND AVENUE SOUTH,RICHFIELD,MN,55423,HENNEPIN,LIMITED LIABILITY COMPANY,0,0,0,112,0,0,0,0,112,0,0
495387.8784,4996570.386,PRESBYTERIAN HOMES NORTH OAKS,5919 CENTERVILLE ROAD,NORTH OAKS,MN,55127,RAMSEY,CHURCH RELATED,0,0,0,60,0,0,0,0,60,0,0
473435.6198,4975928.604,PARK HEALTH A VILLA CENTER,4415 WEST 36 1/2 STREET,ST. LOUIS PARK,MN,55416,HENNEPIN,LIMITED LIABILITY COMPANY,0,0,0,70,0,0,0,0,70,0,0
472666.9702,4997691.791,SAINT THERESE AT OXBOW LAKE,5200 OAK GROVE PARKWAY,BROOKLYN PARK,MN,55443,HENNEPIN,LIMITED LIABILITY COMPANY,0,0,0,64,0,0,0,0,64,0,0
349922.9176,5110128.494,CENTRAL TODD COUNTY CARE CTR,406 HIGHWAY 71 EAST PO BOX 38,CLARISSA,MN,56440,TODD,NONPROFIT CORPORATION,0,0,0,50,0,0,0,0,50,0,0
498111.1975,4982827.001,RAMSEY COUNTY CARE CENTER,2000 WHITE BEAR AVENUE,MAPLEWOOD,MN,55109,RAMSEY,COUNTY,0,0,0,164,0,0,0,0,164,0,0
509013.754,5022606.515,PARMLY ON THE LAKE LLC,28210 OLD TOWNE ROAD,CHISAGO CITY,MN,55013,CHISAGO,LIMITED LIABILITY COMPANY,0,0,0,91,0,0,0,0,91,0,0
480307.9645,4904087.849,PLEASANT MANOR LLC,27 BRAND AVENUE,FARIBAULT,MN,55021,RICE,LIMITED LIABILITY COMPANY,0,0,0,65,0,0,0,0,65,0,0
486135.696,4987149.699,PRESBYTERIAN HOMES ARDEN HILLS,3220 LAKE JOHANNA BOULEVARD,ARDEN HILLS,MN,55112,RAMSEY,NONPROFIT CORPORATION,0,0,0,182,0,0,0,0,182,0,0
468883.2483,4976117.177,SHOLOM HOME WEST,3620 PHILLIPS PARKWAY,ST. LOUIS PARK,MN,55426,HENNEPIN,NONPROFIT CORPORATION,0,0,0,154,0,0,0,0,154,0,0
535891.5313,4934276.391,BAY VIEW NURSING & REHAB CTR,1412 WEST 4TH STREET,RED WING,MN,55066,GOODHUE,LIMITED LIABILITY COMPANY,0,0,0,110,0,0,0,0,110,0,0
427199.7233,4922708.274,RIDGEVIEW LESUEUR MEDICAL CTR,621 SOUTH 4TH STREET,LE SUEUR,MN,56058,LESUEUR,NONPROFIT CORPORATION,15,0,0,55,0,0,0,0,55,0,0
510037.135,4954866.699,REGINA SENIOR LIVING,1175 NININGER ROAD,HASTINGS,MN,55033,DAKOTA,NONPROFIT CORPORATION,0,0,0,57,0,0,0,0,57,0,0
488746.2983,4984219.073,ROSE OF SHARON A VILLA CENTER,1000 LOVELL AVENUE,ROSEVILLE,MN,55113,RAMSEY,LIMITED LIABILITY COMPANY,0,0,0,63,0,0,0,0,63,0,0
469938.2467,4989351.268,ST. THERESE HOME,8000 BASS LAKE ROAD,NEW HOPE,MN,55428,HENNEPIN,NONPROFIT CORPORATION,0,0,0,258,0,0,0,0,258,0,0
474653.6653,4984533.673,ST THERESE TCU NORTH LLC,3300 OAKDALE AVENUE NORTH #4,ROBBINSDALE,MN,55422,HENNEPIN,LIMITED LIABILITY COMPANY,0,0,0,32,0,0,0,0,32,0,0
371394.3087,4955161.719,BUFFALO LAKE HEALTHCARE CTR,703 WEST YELLOWSTONE TRAIL,BUFFALO LAKE,MN,55314,RENVILLE,NONPROFIT CORPORATION,0,0,0,49,0,0,0,0,49,0,0
356824.5175,5092769.737,CENTRACARE HEALTH SYSTEM,20 9TH STREET SE,LONG PRAIRIE,MN,56347,TODD,NONPROFIT CORPORATION,0,0,0,60,0,0,0,0,60,0,0
494530.6667,4970230.932,SOUTHVIEW ACRES HEALTHCARE CTR,2000 OAKDALE AVENUE,WEST ST PAUL,MN,55118,DAKOTA,LIMITED LIABILITY COMPANY,0,0,0,231,0,0,0,0,231,0,0
489077.5011,4973969.996,SHIRLEY CHAPMAN SHOLOM HOME E,740 KAY AVENUE,ST. PAUL,MN,55102,RAMSEY,NONPROFIT CORPORATION,0,0,0,118,0,0,0,0,118,0,0
566180.4182,4854496.227,CHOSEN VALLEY CARE CENTER,1102 LIBERTY STREET SE,CHATFIELD,MN,55923,FILLMORE,NONPROFIT CORPORATION,0,0,0,78,0,0,0,0,78,0,0
463330.3829,4989684.048,THE BIRCHES AT TRILLIUM WOODS,14585 59TH AVENUE NORTH,PLYMOUTH,MN,55446,HENNEPIN,PARTNERSHIP,0,0,0,44,0,0,0,0,44,0,0
477924.9372,4964839.546,THE ESTATES AT BLOOMINGTON,9200 NICOLLET AVENUE SOUTH,BLOOMINGTON,MN,55420,HENNEPIN,LIMITED LIABILITY COMPANY,0,0,0,68,0,0,0,0,68,0,0
325267.1872,4839274.243,COLONIAL MANOR NURSING HOME,403 COLONIAL AVENUE,LAKEFIELD,MN,56150,JACKSON,CORPORATION,0,0,0,37,0,0,0,0,37,0,0
478360.7867,4978709.15,THE ESTATES AT CHATEAU LLC,2106 2ND AVENUE SOUTH,MINNEAPOLIS,MN,55404,HENNEPIN,LIMITED LIABILITY COMPANY,0,0,0,70,0,0,0,0,70,0,0
456898.4125,4960181.037,SHAKOPEE FRIENDSHIP MANOR,1340 3RD AVENUE WEST,SHAKOPEE,MN,55379,SCOTT,CORPORATION,0,0,0,80,0,0,0,0,80,0,0
484606.952,4980813.84,ST ANTHONY PARK HOME,2237 COMMONWEALTH AVENUE,ST. PAUL,MN,55108,RAMSEY,CORPORATION,0,0,0,84,0,0,0,0,84,0,0
456055.763,4971944.806,THE ESTATES AT EXCELSIOR LLC,515 DIVISION STREET,EXCELSIOR,MN,55331,HENNEPIN,LIMITED LIABILITY COMPANY,0,0,0,56,0,0,0,0,56,0,0
460325.4306,4957758.467,ST GERTRUDE'S HLTH & REHAB CTR,1850 SARAZIN STREET,SHAKOPEE,MN,55379,SCOTT,CHURCH RELATED,0,0,0,105,0,0,0,0,105,0,0
469833.8958,4976952.391,THE ESTATES AT ST LOUIS PARK,3201 VIRGINIA AVENUE SOUTH,ST. LOUIS PARK,MN,55426,HENNEPIN,LIMITED LIABILITY COMPANY,0,0,0,175,0,0,0,0,175,0,0
475640.338,4980709.725,THE VILLA AT BRYN MAWR,275 PENN AVENUE NORTH,MINNEAPOLIS,MN,55405,HENNEPIN,LIMITED LIABILITY COMPANY,0,0,0,120,0,0,0,0,120,0,0
278685.4119,4963278.664,CLARKFIELD CARE CENTER,805 5TH STREET,CLARKFIELD,MN,56223,YELLOW MEDICINE,CITY,0,0,0,36,0,0,0,0,36,0,0
320000.2675,5266686.97,CORNERSTONE NSG & REHAB CENTER,416 7TH STREET NE,BAGLEY,MN,56621,CLEARWATER,CORPORATION,0,0,0,47,0,0,0,0,47,0,0
503721.5119,4970674.011,ST THERESE OF WOODBURY LLC,7555 BAILEY ROAD,WOODBURY,MN,55129,WASHINGTON,LIMITED LIABILITY COMPANY,0,0,0,56,0,0,0,0,56,0,0
477399.7773,4987925.355,VICTORY HEALTH & REHAB CTR,512 49TH AVENUE NORTH,MINNEAPOLIS,MN,55430,HENNEPIN,LIMITED LIABILITY COMPANY,0,0,0,87,0,0,0,0,87,0,0
477106.4069,4975763.118,WALKER METHODIST HEALTH CTR,3737 BRYANT AVENUE SOUTH,MINNEAPOLIS,MN,55409,HENNEPIN,NONPROFIT CORPORATION,0,0,0,290,0,0,0,0,290,0,0
289941.004,4833767.315,CROSSROADS CARE CENTER,965 MCMILLAN STREET,WORTHINGTON,MN,56187,NOBLES,LIMITED LIABILITY COMPANY,0,0,0,50,0,0,0,0,50,0,0
478171.6385,4990982.012,THE ESTATES AT FRIDLEY LLC,5700 EAST RIVER ROAD,FRIDLEY,MN,554326149,ANOKA,LIMITED LIABILITY COMPANY,0,0,0,54,0,0,0,0,54,0,0
477324.6602,4977032.803,REDEEMER RESIDENCE INC,625 WEST 31ST STREET,MINNEAPOLIS,MN,55408,HENNEPIN,CHURCH RELATED,0,0,0,135,0,0,0,0,135,0,0
427404.1742,5148002.091,CUYUNA REGIONAL MEDICAL CENTER,320 EAST MAIN STREET,CROSBY,MN,56441,CROW WING,NONPROFIT CORPORATION,42,7,0,69,0,0,0,0,69,0,0
540809.5182,4881090.455,ROCHESTER REHAB & LIVING CTR,1900 BALLINGTON BOULEVARD NW,ROCHESTER,MN,55901,OLMSTED,NONPROFIT CORPORATION,0,0,0,56,0,0,0,0,56,0,0
241996.9222,4927923.281,DIVINE PROVIDENCE HEALTH CENTR,312 EAST GEORGE STREET,IVANHOE,MN,56142,LINCOLN,NONPROFIT CORPORATION,0,0,0,25,0,0,0,0,25,0,0
485710.4774,4977991.444,THE ESTATES AT LYNNHURST LLC,471 LYNNHURST AVENUE WEST,ST. PAUL,MN,55104,RAMSEY,LIMITED LIABILITY COMPANY,0,0,0,70,0,0,0,0,70,0,0
468943.8009,5005055.946,THE ESTATES AT TWIN RIVERS LLC,305 FREMONT STREET,ANOKA,MN,55303,ANOKA,LIMITED LIABILITY COMPANY,0,0,0,50,0,0,0,0,50,0,0
488963.3067,4985597.003,THE ESTATES AT ROSEVILLE LLC,2727 VICTORIA STREET NORTH,ROSEVILLE,MN,55113,RAMSEY,LIMITED LIABILITY COMPANY,0,0,0,150,0,0,0,0,150,0,0
474083.4057,4984421.854,ROBBINSDALE A VILLA CENTER,3130 GRIMES AVENUE NORTH,ROBBINSDALE,MN,55422,HENNEPIN,LIMITED LIABILITY COMPANY,0,0,0,75,0,0,0,0,75,0,0
247941.3279,4863185.248,EDGEBROOK CARE CENTER,505 TROSKY ROAD WEST,EDGERTON,MN,56128,PIPESTONE,NONPROFIT CORPORATION,0,0,0,56,0,0,0,0,56,0,0
543810.9204,4873999.577,ROCHESTER EAST HLTH SVCS,501 8TH AVENUE SE,ROCHESTER,MN,55904,OLMSTED,LIMITED LIABILITY COMPANY,0,0,0,111,0,0,0,0,111,0,0
542912.3446,4875466.654,SAMARITAN BETHANY HM ON EIGHTH,24 8TH STREET NW,ROCHESTER,MN,55901,OLMSTED,NONPROFIT CORPORATION,0,0,0,155,0,0,0,0,155,0,0
450109.104,5067081.087,ELIM HOME MILACA,730 2ND STREET SE,MILACA,MN,56353,MILLE LACS,CHURCH RELATED,0,0,0,70,0,0,0,0,70,0,0
483340.3622,4987001.816,ST ANTHONY HEALTH & REHAB,3700 FOSS ROAD NORTHEAST,ST ANTHONY,MN,55421,RAMSEY,PARTNERSHIP,0,0,0,140,0,0,0,0,140,0,0
454455.7372,5046356.684,ELIM HOME,701 1ST STREET,PRINCETON,MN,55371,MILLE LACS,CHURCH RELATED,0,0,0,105,0,0,0,0,105,0,0
493126.0633,4971895.122,WALKER METHODIST WESTWOOD II,61 THOMPSON AVENUE WEST,WEST ST PAUL,MN,55118,DAKOTA,LIMITED LIABILITY COMPANY,0,0,0,37,0,0,0,37,0,0,0
494918.5813,4968010.864,WOODLYN HEIGHTS HEALTHCARE CTR,2060 UPPER 55TH STREET EAST,INVER GROVE HEIGHTS,MN,55077,DAKOTA,CORPORATION,0,0,0,79,0,0,0,0,79,0,0
411756.4879,5043711.988,ST BENEDICTS SENIOR COMMUNITY,1810 MINNESOTA BOULEVARD SE,ST. CLOUD,MN,56304,SHERBURNE,CHURCH RELATED,0,0,0,174,0,0,0,2,172,0,0
536696.3819,4934086.006,ST CRISPIN LIVING COMMUNITY,213 PIONEER ROAD,RED WING,MN,55066,GOODHUE,NONPROFIT CORPORATION,0,0,0,64,0,0,0,0,64,0,0
283755.6237,5187439.735,EMMANUEL NURSING HOME,1415 MADISON AVENUE,DETROIT LAKES,MN,56501,BECKER,NONPROFIT CORPORATION,0,0,0,102,0,0,0,0,102,0,0
533716.625,5262679.875,THE WATERVIEW PINES LLC,1201 8TH STREET SOUTH,VIRGINIA,MN,55792,SAINT LOUIS,LIMITED LIABILITY COMPANY,0,0,0,83,0,0,0,0,83,0,0
394600.6061,5091108.826,ST. OTTO'S CARE CENTER INC,920 4TH STREET SE,LITTLE FALLS,MN,56345,MORRISON,CORPORATION,0,0,0,91,0,0,0,0,91,0,0
601182.9062,5209556.371,THE WATERVIEW SHORES LLC,402 13TH AVENUE,TWO HARBORS,MN,55616,LAKE,LIMITED LIABILITY COMPANY,0,0,0,44,0,0,0,0,44,0,0
502889.4003,4972730.669,WOODBURY HEALTH CARE CENTER,7012 LAKE ROAD,WOODBURY,MN,55125,WASHINGTON,NONPROFIT CORPORATION,0,0,0,155,0,0,0,0,155,0,0
534627.1121,5256994.539,THE WATERVIEW WOODS LLC,601 GRANT AVENUE,EVELETH,MN,55734,SAINT LOUIS,LIMITED LIABILITY COMPANY,0,0,0,80,0,0,0,0,80,0,0
283038.4498,5188465.557,ESSENTIA HEALTH OAK CROSSING,1040 LINCOLN AVENUE,DETROIT LAKES,MN,56501,BECKER,NONPROFIT CORPORATION,0,0,0,94,0,0,0,0,94,0,0
405005.2098,5045290.145,STERLING PARK HCC,142 NORTH 1ST STREET,WAITE PARK,MN,56387,STEARNS,CORPORATION,0,0,0,40,0,0,0,0,40,0,0
411972.3139,5044587.54,TALAHI NURSING & REHAB CENTER,1717 UNIVERSITY DRIVE SE,ST. CLOUD,MN,56304,SHERBURNE,LIMITED LIABILITY COMPANY,0,0,0,77,0,0,0,0,77,0,0
232009.9469,5051200.657,ESSENTIA HEALTH GRACE HOME,116 WEST 2ND STREET,GRACEVILLE,MN,56240,BIG STONE,NONPROFIT CORPORATION,0,0,0,40,0,0,0,0,40,0,0
541328.0483,4856146.5,STEWARTVILLE CARE CENTER,120 4TH STREET NE,STEWARTVILLE,MN,55976,OLMSTED,NONPROFIT CORPORATION,0,0,0,58,0,0,0,0,58,0,0
506532.3121,4928418.907,THE GARDENS AT CANNON FALLS,300 DOW STREET NORTH,CANNON FALLS,MN,55009,GOODHUE,LIMITED LIABILITY COMPANY,0,0,0,89,0,0,0,0,89,0,0
503020.8254,5058787.272,THE ESTATES AT RUSH CITY LLC,650 BREMER AVENUE SOUTH,RUSH CITY,MN,55069,CHISAGO,LIMITED LIABILITY COMPANY,0,0,0,45,0,0,0,0,45,0,0
561656.5903,5174530.08,THE NORTH SHORE ESTATES LLC,7700 GRAND AVENUE,DULUTH,MN,55807,SAINT LOUIS,LIMITED LIABILITY COMPANY,0,0,0,70,0,0,0,0,70,0,0
558019.5043,5263018.757,ESSENTIA HEALTH NORTHERN PINES,5211 HIGHWAY 110,AURORA,MN,55705,SAINT LOUIS,NONPROFIT CORPORATION,16,4,0,33,0,0,0,0,33,0,0
293969.9562,5272287.471,ESSENTIA HEALTH FOSSTON,900 HILLIGOSS BOULEVARD SE,FOSSTON,MN,56542,POLK,NONPROFIT CORPORATION,43,7,0,50,0,0,0,0,50,0,0
470016.4929,4977862.036,TEXAS TERRACE A VILLA CENTER,7900 WEST 28TH STREET,ST. LOUIS PARK,MN,55426,HENNEPIN,LIMITED LIABILITY COMPANY,0,0,0,112,0,0,0,0,112,0,0
362412.8134,4907332.344,DIVINE PROVIDENCE COMMUNITY HM,700 3RD AVENUE NW,SLEEPY EYE,MN,56085,BROWN,NONPROFIT CORPORATION,0,0,0,53,0,0,0,0,53,0,0
468894.6019,4995785.174,THE VILLA AT OSSEO,501 2ND STREET SE,OSSEO,MN,55369,HENNEPIN,LIMITED LIABILITY COMPANY,0,0,0,20,97,0,0,0,20,0,97
291225.7003,5098415.293,EVANSVILLE CARE CENTER,649 STATE STREET NW,EVANSVILLE,MN,56326,DOUGLAS,LIMITED LIABILITY COMPANY,0,0,0,37,0,0,0,0,37,0,0
489315.3427,4943072.146,TRINITY CARE CENTER,905 ELM STREET,FARMINGTON,MN,55024,DAKOTA,NONPROFIT CORPORATION,0,0,0,84,0,0,0,0,84,0,0
512571.111,4859928.921,FIELD CREST CARE CENTER,318 2ND STREET NE,HAYFIELD,MN,55940,DODGE,CITY,0,0,0,45,0,0,0,0,45,0,0
486321.7513,4922566.444,THREE LINKS CARE CENTER,815 FOREST AVENUE,NORTHFIELD,MN,55057,RICE,NONPROFIT CORPORATION,0,0,0,92,0,0,0,0,92,0,0
564008.0959,5181660.149,VIEWCREST HEALTH CENTER,3111 CHURCH STREET,DULUTH,MN,55811,SAINT LOUIS,NONPROFIT CORPORATION,0,0,0,92,0,0,0,0,92,0,0
459685.0053,5228136.739,THE EMERALDS AT GRAND RAPIDS,2801 SOUTH HIGHWAY 169,GRAND RAPIDS,MN,55744,ITASCA,LIMITED LIABILITY COMPANY,0,0,0,93,0,0,0,0,93,0,0
212649.7474,5196485.291,EVENTIDE LUTHERAN HOME,1405 7TH STREET SOUTH,MOORHEAD,MN,56560,CLAY,CHURCH RELATED,0,0,0,195,0,0,0,0,195,0,0
470382.8907,4978913.165,THE VILLA AT ST LOUIS PARK,7500 WEST 22ND STREET,ST. LOUIS PARK,MN,55426,HENNEPIN,LIMITED LIABILITY COMPANY,0,0,0,114,0,0,0,0,114,0,0
526100.437,4904456.65,ZUMBROTA CARE CENTER,433 MILL STREET,ZUMBROTA,MN,55992,GOODHUE,NONPROFIT CORPORATION,0,0,0,50,0,0,0,0,50,0,0
293244.798,5178443.649,FRAZEE CARE CENTER,219 WEST MAPLE AVENUE,FRAZEE,MN,56544,BECKER,LIMITED LIABILITY COMPANY,0,0,0,60,0,0,0,0,60,0,0
332247.8903,5081825.449,GALEON,410 WEST MAIN STREET,OSAKIS,MN,56360,DOUGLAS,NONPROFIT CORPORATION,0,0,0,40,0,0,0,0,40,0,0
290693.3835,5129876.998,GOOD SAM BATTLE LAKE,105 GLENHAVEN DRIVE,BATTLE LAKE,MN,56515,OTTER TAIL,NONPROFIT CORPORATION,0,0,0,55,0,0,0,0,55,0,0
347266.4175,4919558.141,GIL MOR MANOR,96 3RD STREET EAST,MORGAN,MN,56266,REDWOOD,NONPROFIT CORPORATION,0,0,0,35,0,0,0,0,35,0,0
503961.4137,4835947.177,GOOD SAM COMFORCARE,1201 17TH STREET NE,AUSTIN,MN,55912,MOWER,NONPROFIT CORPORATION,0,0,0,45,0,0,0,0,45,0,0
338386.1268,4831944.658,GOOD SAM JACKSON,601 WEST STREET,JACKSON,MN,56143,JACKSON,NONPROFIT CORPORATION,0,0,0,53,0,0,0,0,53,0,0
344525.1898,4867368.754,GOOD SAM MOUNTAIN LAKE,745 BASINGER MEMORIAL DRIVE,MOUNTAIN LAKE,MN,56159,COTTONWOOD,NONPROFIT CORPORATION,0,0,0,53,0,0,0,0,53,0,0
240023.3355,4838453.633,GOOD SAMARITAN MARY JANE BROWN,110 SOUTH WALNUT AVENUE,LUVERNE,MN,56156,ROCK,NONPROFIT CORPORATION,0,0,0,51,0,0,0,0,51,0,0
368994.7494,4870370.267,GOOD SAM SOCIETY ST JAMES,1000 2ND STREET SOUTH,ST JAMES,MN,56081,WATONWAN,NONPROFIT CORPORATION,0,0,0,51,0,0,0,0,51,0,0
234149.0371,4879513.295,GOOD SAM PIPESTONE,1311 NORTH HIAWATHA AVENUE,PIPESTONE,MN,56164,PIPESTONE,NONPROFIT CORPORATION,0,0,0,84,0,0,0,0,84,0,0
304903.9349,4878970.646,GOOD SAM WESTBROOK,149 1ST AVENUE,WESTBROOK,MN,56183,COTTONWOOD,NONPROFIT CORPORATION,0,0,0,34,0,0,0,0,34,0,0
329417.3966,4858637.101,GOOD SAM WINDOM,705 6TH STREET,WINDOM,MN,56101,COTTONWOOD,NONPROFIT CORPORATION,0,0,0,72,0,0,0,0,72,0,0
407764.5918,5132076.604,GOOD SAM BETHANY,804 WRIGHT STREET,BRAINERD,MN,56401,CROW WING,NONPROFIT CORPORATION,0,0,0,106,0,0,0,0,106,0,0
599894.4009,4852667.086,GOOD SHEPHERD LUTHERAN HOME,800 HOME STREET BOX 747,RUSHFORD,MN,55971,FILLMORE,CHURCH RELATED,0,0,0,70,0,0,0,0,70,0,0
521967.632,4823799.53,ADAMS HEALTH CARE CENTER,810 WEST MAIN STREET,ADAMS,MN,55909,MOWER,CITY,0,0,0,30,0,0,0,0,30,0,0
275922.4678,5087691.52,BARRETT CARE CENTER INC,800 SPRUCE AVENUE,BARRETT,MN,56311,GRANT,CORPORATION,0,0,0,45,0,0,0,0,45,0,0
422480.3172,4911313.291,BENEDICTINE LVG COMM ST PETER,1907 KLEIN STREET,ST. PETER,MN,56082,NICOLLET,NONPROFIT CORPORATION,0,0,0,79,0,0,0,0,79,0,0
340296.2849,4997290.122,BETHESDA,901 SE WILLMAR AVENUE,WILLMAR,MN,56201,KANDIYOHI,NONPROFIT CORPORATION,0,0,0,248,0,0,0,0,248,0,0
347880.2804,5067664.756,CENTRACARE HEALTH SYSTEM,425 NORTH ELM STREET,SAUK CENTRE,MN,56378,STEARNS,NONPROFIT CORPORATION,28,8,0,60,0,0,0,0,60,0,0
501351.175,5014754.598,BIRCHWOOD HEALTH CARE CENTER,604 NE 1ST STREET,FOREST LAKE,MN,55025,WASHINGTON,NONPROFIT CORPORATION,0,0,0,100,0,0,0,0,100,0,0
313069.1989,4981706.564,CLARA CITY CARE CENTER,1012 DIVISION STREET NORTH,CLARA CITY,MN,56222,CHIPPEWA,CITY,0,0,0,48,0,0,0,0,48,0,0
337468.1135,5144908.405,FAIR OAKS NURSING & REHAB LLC,201 SHADY LANE DRIVE,WADENA,MN,56482,WADENA,LIMITED LIABILITY COMPANY,0,0,0,75,0,0,0,0,75,0,0
500110.6769,5038872.172,ECUMEN NORTH BRANCH,5379 383RD STREET,NORTH BRANCH,MN,55056,CHISAGO,CHURCH RELATED,0,0,0,67,0,0,0,0,67,0,0
229744.5924,5024043.94,FAIRWAY VIEW NEIGHBORHOODS,201 MARK DRIVE,ORTONVILLE,MN,56278,BIG STONE,CITY,0,0,0,51,0,0,0,0,51,0,0
253410.1266,5269042.327,FAIR MEADOW NURSING HOME,300 GARFIELD AVENUE SE BOX 8,FERTILE,MN,56540,POLK,CITY,0,0,0,42,0,0,0,0,42,0,0
471005.4982,4838745.579,GOOD SAM ALBERT LEA,75507 240TH STREET,ALBERT LEA,MN,56007,FREEBORN,NONPROFIT CORPORATION,0,0,0,85,0,0,0,0,85,0,0
383607.9019,5287508.267,GOOD SAM BLACKDUCK,172 SUMMIT AVENUE WEST,BLACKDUCK,MN,56630,BELTRAMI,NONPROFIT CORPORATION,0,0,0,30,0,0,0,0,30,0,0
468068.487,5381607.91,GOOD SAM INTERNATIONAL FALLS,2201 KEENAN DRIVE,INTERNATIONAL FALLS,MN,56649,KOOCHICHING,NONPROFIT CORPORATION,0,0,0,54,0,0,0,0,54,0,0
333062.2521,4933991.355,RIVER VALLEY HEALTH & REHAB,200 DEKALB STREET SOUTH,REDWOOD FALLS,MN,56283,REDWOOD,LIMITED LIABILITY COMPANY,0,0,0,43,0,0,0,0,43,0,0
392816.2548,5175292.398,GOOD SAM PINE RIVER,518 JEFFERSON AVENUE,PINE RIVER,MN,56474,CASS,NONPROFIT CORPORATION,0,0,0,33,0,0,0,0,33,0,0
440223.6269,5243701.693,DEER RIVER HEALTH CARE CENTER,115 10TH AVENUE NE,DEER RIVER,MN,56636,ITASCA,NONPROFIT CORPORATION,20,6,0,32,0,0,0,0,32,0,0
406994.8902,5131467.191,GOOD SAM WOODLAND,100 BUFFALO HILLS LANE,BRAINERD,MN,56401,CROW WING,NONPROFIT CORPORATION,0,0,0,36,0,0,0,0,36,0,0
350193.8337,4931472.751,FRANKLIN REHAB & HCC,900 3RD STREET SOUTH,FRANKLIN,MN,55333,RENVILLE,LIMITED LIABILITY COMPANY,0,0,0,40,0,0,0,0,40,0,0
481792.0206,5046673.039,GRACEPOINTE CROSSING GABLES,1601 RIVERHILLS PARKWAY NW,CAMBRIDGE,MN,55008,ISANTI,NONPROFIT CORPORATION,0,0,0,141,0,0,0,0,141,0,0
314051.4067,5057188.325,GLENWOOD VILLAGE CARE CENTER,719 2ND STREET SOUTHEAST,GLENWOOD,MN,56334,POPE,CHURCH RELATED,0,0,0,64,0,0,0,0,64,0,0
298877.6246,4964855.687,AVERA GRANITE FALLS CARE CTR,250 JORDAN DRIVE,GRANITE FALLS,MN,56241,CHIPPEWA,NONPROFIT CORPORATION,0,0,0,48,0,0,0,0,48,0,0
600101.2686,4819423.757,GREEN LEA SENIOR LIVING,115 LYNDALE STREET NORTH,MABEL,MN,55954,FILLMORE,CORPORATION,0,0,0,41,0,0,0,0,41,0,0
457303.8561,5232922.846,GRAND VILLAGE,923 HALE LAKE POINTE,GRAND RAPIDS,MN,55744,ITASCA,COUNTY,0,0,0,114,0,0,0,0,114,0,0
340446.4255,5180171.627,GREEN PINE ACRES NURSING HOME,427 MAIN STREET NE,MENAHGA,MN,56464,WADENA,CITY,0,0,0,65,0,0,0,0,65,0,0
211614.0297,5251472.223,HALSTAD LIVING CENTER,133 4TH AVENUE EAST,HALSTAD,MN,56548,NORMAN,CHURCH RELATED,0,0,0,44,0,0,0,0,44,0,0
357488.9039,5260713.76,HAVENWOOD CARE CENTER,1633 DELTON AVENUE,BEMIDJI,MN,56601,BELTRAMI,CORPORATION,0,0,0,90,0,0,0,0,90,0,0
579925.4564,4821979.508,GUNDERSEN HARMONY CARE CENTER,815 MAIN AVENUE SOUTH,HARMONY,MN,55939,FILLMORE,NONPROFIT CORPORATION,0,0,0,43,0,0,0,0,43,0,0
228269.8255,4933740.158,HENDRICKS COMMUNITY HOSPITAL,503 EAST LINCOLN STREET,HENDRICKS,MN,56136,LINCOLN,NONPROFIT CORPORATION,24,0,0,48,0,0,0,0,48,0,0
389348.08,5019685.247,HILLTOP HEALTH CARE CENTER,410 LUELLA STREET,WATKINS,MN,55389,MEEKER,LIMITED LIABILITY COMPANY,0,0,0,50,0,0,0,0,50,0,0
342522.3641,5198049.337,HERITAGE LIVING CENTER,619 WEST 6TH STREET,PARK RAPIDS,MN,56470,HUBBARD,COUNTY,0,0,0,64,0,0,0,0,64,0,0
443426.9923,4885910.079,WHISPERING CREEK,102 EAST NORTH STREET,JANESVILLE,MN,56048,WASECA,CITY,0,0,0,40,0,0,0,0,40,0,0
258013.8117,4979896.347,JOHNSON MEMORIAL HOSP & HOME,1290 LOCUST STREET,DAWSON,MN,56232,LAC QUI PARLE,HOSPITAL DISTRICT OR AUTHORITY,0,0,0,56,0,0,0,0,56,0,0
210523.9985,5409072.243,KITTSON MEMORIAL HOSPITAL,1010 SOUTH BIRCH AVENUE,HALLOCK,MN,56728,KITTSON,NONPROFIT CORPORATION,15,0,0,60,0,0,0,0,60,0,0
315955.2298,5083229.509,KNUTE NELSON,420 12TH AVENUE EAST,ALEXANDRIA,MN,56308,DOUGLAS,NONPROFIT CORPORATION,0,0,0,93,0,0,0,0,93,0,0
509672.7063,5260003.832,HERITAGE MANOR,321 NE 6TH STREET,CHISHOLM,MN,55719,SAINT LOUIS,NONPROFIT CORPORATION,0,0,0,70,0,0,0,0,70,0,0
240218.0712,5385924.702,KARLSTAD HEALTHCARE CTR INC,304 WASHINGTON AVENUE WEST,KARLSTAD,MN,56732,KITTSON,CORPORATION,0,0,0,46,0,0,0,0,46,0,0
610505.2631,4876613.045,LAKE WINONA MANOR,865 MANKATO AVENUE,WINONA,MN,55987,WINONA,NONPROFIT CORPORATION,0,0,0,110,0,0,0,0,110,0,0
635688.838,4854169.02,LA CRESCENT HEALTH SVCS,101 SOUTH HILL STREET,LA CRESCENT,MN,55947,HOUSTON,LIMITED LIABILITY COMPANY,0,0,0,42,0,0,0,0,42,0,0
458451.7783,4880759.044,LAKESHORE INN NURSING HOME,108 8TH STREET NW,WASECA,MN,56093,WASECA,CORPORATION,0,0,0,55,0,0,0,0,55,0,0
397486.5069,4993052.274,LAKESIDE HEALTH CARE CENTER,439 WILLIAM AVENUE EAST,DASSEL,MN,55325,MEEKER,CHURCH RELATED,0,0,0,54,0,0,0,0,54,0,0
381008.7679,4833411.869,LAKEVIEW METHODIST HCC,610 SUMMIT DRIVE,FAIRMONT,MN,56031,MARTIN,NONPROFIT CORPORATION,0,0,0,82,0,0,0,0,82,0,0
382269.322,5396077.99,LAKEWOOD CARE CENTER,600 MAIN AVENUE SOUTH,BAUDETTE,MN,56623,LAKE OF THE WOODS,CHURCH RELATED,0,0,0,32,0,0,0,0,32,0,0
263670.483,5129268.307,LB BROEN HOME,824 SOUTH SHERIDAN STREET,FERGUS FALLS,MN,56537,OTTER TAIL,NONPROFIT CORPORATION,0,0,0,78,0,0,0,0,78,0,0
264984.2601,5398019.627,LIFECARE GREENBUSH MANOR,19120 200TH STREET,GREENBUSH,MN,56726,ROSEAU,NONPROFIT CORPORATION,0,0,0,40,0,0,0,0,20,20,0
479854.3648,4884494.507,KODA LIVING COMMUNITY,2255 30TH STREET NW,OWATONNA,MN,55060,STEELE,NONPROFIT CORPORATION,0,0,0,79,0,0,0,0,79,0,0
297524.8556,5413257.052,LIFECARE MEDICAL CENTER,715 DELMORE DRIVE,ROSEAU,MN,56751,ROSEAU,NONPROFIT CORPORATION,25,7,0,50,0,0,0,0,50,0,0
459112.9034,5361076.342,LITTLEFORK MEDICAL CENTER,912 MAIN STREET,LITTLEFORK,MN,56653,KOOCHICHING,NONPROFIT CORPORATION,0,0,0,49,0,0,0,0,49,0,0
361988.7785,5137474.263,LAKEWOOD HEALTH SYSTEM,401 PRAIRIE AVENUE NE,STAPLES,MN,56479,WADENA,NONPROFIT CORPORATION,0,0,0,100,0,0,0,0,100,0,0
248823.0871,4989899.414,MADISON HEALTHCARE SERVICES,900 2ND AVENUE,MADISON,MN,56256,LAC QUI PARLE,NONPROFIT CORPORATION,0,0,0,56,0,0,0,0,56,0,0
275317.1439,5244092.431,MAHNOMEN HEALTH CENTER,414 WEST JEFFERSON AVENUE,MAHNOMEN,MN,56557,MAHNOMEN,CITY-COUNTY,18,0,0,32,0,0,0,0,32,0,0
291513.3644,4861324.266,MAPLE LAWN SENIOR CARE,400 7TH STREET NE,FULDA,MN,56131,MURRAY,NONPROFIT CORPORATION,0,0,0,54,0,0,0,0,54,0,0
286037.2844,4981291.664,LUTHER HAVEN,1109 HIGHWAY 7 EAST,MONTEVIDEO,MN,56265,CHIPPEWA,CHURCH RELATED,0,0,0,90,0,0,0,0,90,0,0
485712.7337,4986754.342,LANGTON SHORES,1900 WEST COUNTY ROAD D,ROSEVILLE,MN,55112,RAMSEY,NONPROFIT CORPORATION,0,0,0,50,0,0,0,50,0,0,0
422731.8639,4864062.648,MAPLETON COMMUNITY HOME,301 TROENDLE STREET,MAPLETON,MN,56065,BLUE EARTH,NONPROFIT CORPORATION,0,0,0,60,0,0,0,0,60,0,0
502764.7498,5074487.306,LAKESIDE MEDICAL CENTER,129 6TH AVENUE SE,PINE CITY,MN,55063,PINE,CORPORATION,0,0,0,46,0,0,0,0,46,0,0
510373.5994,4875911.181,FAIRVIEW CARE CENTER,702 10TH AVENUE NW PO BOX 10,DODGE CENTER,MN,55927,DODGE,COUNTY,0,0,0,55,0,0,0,0,55,0,0
534219.0107,4839340.557,MEADOW MANOR,210 EAST GRAND AVENUE,GRAND MEADOW,MN,55936,MOWER,CORPORATION,0,0,0,26,0,0,0,0,26,0,0
283385.4414,5280706.516,MCINTOSH SENIOR LIVING,600 RIVERSIDE AVENUE NORTHEAST,MCINTOSH,MN,56556,POLK,NONPROFIT CORPORATION,0,0,0,45,0,0,0,0,45,0,0
386164.1316,4877977.078,LIVING MEADOWS AT LUTHER,503 BENZEL AVENUE SW,MADELIA,MN,56062,WATONWAN,NONPROFIT CORPORATION,0,0,0,51,0,0,0,0,51,0,0
448802.6771,5102480.726,MILLE LACS HEALTH SYSTEM,200 NORTH ELM STREET,ONAMIA,MN,56359,MILLE LACS,NONPROFIT CORPORATION,28,3,0,57,0,0,0,0,57,0,0
295298.3006,5021640.979,MEADOW LANE REHAB AND HCC,2209 UTAH AVENUE,BENSON,MN,56215,SWIFT,LIMITED LIABILITY COMPANY,0,0,0,37,19,0,0,0,37,0,19
263321.7246,4939014.695,MINNEOTA MANOR HCC,700 NORTH MONROE STREET,MINNEOTA,MN,56264,LYON,LIMITED LIABILITY COMPANY,0,0,0,55,0,0,0,0,55,0,0
380621.7261,4997406.543,MEEKER MANOR REHAB CTR LLC,600 SOUTH DAVIS AVENUE,LITCHFIELD,MN,55355,MEEKER,LIMITED LIABILITY COMPANY,0,0,0,75,0,0,0,0,75,0,0
302711.2535,5054268.526,MINNEWASKA COMMUNITY HLTH SVC,605 MAIN STREET,STARBUCK,MN,56381,POPE,NONPROFIT CORPORATION,0,0,0,39,0,0,0,0,39,0,0
556712.3047,4923126.149,MAYO CLINIC HEALTH SYSTEM,500 WEST GRANT STREET,LAKE CITY,MN,55041,WABASHA,NONPROFIT CORPORATION,0,0,0,90,0,0,0,0,90,0,0
262996.7563,5132256.897,MN VETERANS HOME FERGUS FALLS,1821 NORTH PARK,FERGUS FALLS,MN,56537,OTTER TAIL,STATE,0,0,0,106,0,0,0,0,106,0,0
631226.827,5239609.287,MN VETERANS HOME SILVER BAY,56 OUTER DRIVE,SILVER BAY,MN,55614,LAKE,STATE,0,0,0,83,0,0,0,0,83,0,0
241131.5346,4840056.51,MN VETERANS HOME LUVERNE,1300 NORTH KNISS,LUVERNE,MN,56156,ROCK,STATE,0,0,0,85,0,0,0,0,85,0,0
357343.0448,5262881.321,NEILSON PLACE,1000 ANNE STREET NW,BEMIDJI,MN,56601,BELTRAMI,NONPROFIT CORPORATION,0,0,0,78,0,0,0,0,78,0,0
219487.8667,5344465.679,NORTH STAR MANOR,410 SOUTH MCKINLEY STREET,WARREN,MN,56762,MARSHALL,CITY,0,0,0,45,0,0,0,0,45,0,0
460691.162,4860279.789,NEW RICHLAND CARE CENTER,312 1ST STREET NE,NEW RICHLAND,MN,56072,WASECA,CITY,0,0,0,50,0,0,0,0,50,0,0
382077.3534,4908118.233,OAK HILLS LIVING CENTER,1314 8TH STREET NORTH,NEW ULM,MN,56073,BROWN,NONPROFIT CORPORATION,0,0,0,94,0,0,0,0,94,0,0
262995.6604,5332606.782,OAKLAND PARK COMMUNITIES INC,123 BAKEN STREET,THIEF RIVER FALLS,MN,56701,PENNINGTON,CORPORATION,0,0,0,35,0,0,0,0,35,0,0
342437.657,4960477.069,OLIVIA REHAB & HCC,1003 WEST MAPLE AVENUE,OLIVIA,MN,56277,RENVILLE,LIMITED LIABILITY COMPANY,0,0,0,55,0,0,0,0,55,0,0
546189.4805,4829188.857,OSTRANDER CARE AND REHAB,305 MINNESOTA STREET,OSTRANDER,MN,55961,FILLMORE,CORPORATION,0,0,0,25,0,0,0,0,25,0,0
215356.6649,5198285.666,MOORHEAD REHAB & HCC,2810 2ND AVENUE NORTH,MOORHEAD,MN,56560,CLAY,LIMITED LIABILITY COMPANY,0,0,0,78,0,0,0,0,78,0,0
485838.3871,4924009.376,NORTHFIELD CARE CENTER INC,900 CANNON VALLEY DRIVE,NORTHFIELD,MN,55057,RICE,CHURCH RELATED,0,0,0,42,0,0,0,0,42,0,0
699222.3239,5292663.391,NORTH SHORE HEALTH,515 5TH AVENUE WEST,GRAND MARAIS,MN,55604,COOK,HOSPITAL DISTRICT OR AUTHORITY,16,0,0,37,0,0,0,0,37,0,0
315223.486,4941159.934,PARKVIEW HOME,102 COUNTY STATE AID HIGHWAY 9,BELVIEW,MN,56214,REDWOOD,CITY,0,0,0,30,0,0,0,0,30,0,0
263960.0798,5161953.223,PELICAN VALLEY HEALTH CENTER,211 EAST MILL AVENUE,PELICAN RAPIDS,MN,56572,OTTER TAIL,HOSPITAL DISTRICT OR AUTHORITY,0,0,0,33,0,0,0,0,33,0,0
302167.2127,5163563.071,PERHAM LIVING,735 3RD STREET SW,PERHAM,MN,56573,OTTER TAIL,HOSPITAL DISTRICT OR AUTHORITY,0,0,0,96,0,0,0,0,96,0,0
363554.1456,4930850.49,FAIRFAX COMMUNITY HOME,300 10TH AVENUE SOUTHEAST,FAIRFAX,MN,55332,RENVILLE,CORPORATION,0,0,0,29,0,0,0,0,29,0,0
276200.5114,5283123.49,PIONEER MEMORIAL CARE CENTER,23028 347TH STREET SOUTHEAST,ERSKINE,MN,56535,POLK,NONPROFIT CORPORATION,0,0,0,58,0,0,0,0,58,0,0
255792.0511,4823260.751,PARKVIEW MANOR NURSING HOME,308 SHERMAN AVENUE,ELLSWORTH,MN,56129,NOBLES,CITY,0,0,0,37,0,0,0,0,37,0,0
264221.4343,5128856.541,PIONEER CARE CENTER,1131 SOUTH MABELLE AVENUE,FERGUS FALLS,MN,56537,OTTER TAIL,CHURCH RELATED,0,0,0,105,0,0,0,0,105,0,0
431368.1467,5001653.993,PARK VIEW CARE CENTER,200 PARK LANE,BUFFALO,MN,55313,WRIGHT,CHURCH RELATED,0,0,0,123,0,0,0,0,123,0,0
291859.0912,4900973.508,PRAIRIE VIEW SENIOR LIVING,250 5TH STREET EAST,TRACY,MN,56175,LYON,CORPORATION,0,0,0,43,0,0,0,0,43,0,0
441651.5972,4842733.403,PARKVIEW CARE CENTER WELLS,55 10TH STREET SE,WELLS,MN,56097,FARIBAULT,NONPROFIT CORPORATION,0,0,0,45,0,0,0,0,45,0,0
228961.5388,5297404.536,RIVERVIEW HOSPITAL & NSG HOME,323 SOUTH MINNESOTA STREET,CROOKSTON,MN,56716,POLK,NONPROFIT CORPORATION,49,10,0,24,0,0,0,0,24,0,0
325163.5844,4961375.83,RENVILLA HEALTH CENTER,205 SOUTHEAST ELM AVENUE,RENVILLE,MN,56284,RENVILLE,NONPROFIT CORPORATION,0,0,0,55,0,0,0,0,55,0,0
510408.0867,5108148.711,SANDSTONE HEALTH CARE CENTER,109 COURT AVENUE SOUTH,SANDSTONE,MN,55072,PINE,LIMITED LIABILITY COMPANY,0,0,0,50,0,0,0,0,50,0,0
240280.7002,4955735.737,SANFORD CANBY MEDICAL CENTER,112 ST OLAF AVENUE SOUTH,CANBY,MN,56220,YELLOW MEDICINE,NONPROFIT CORPORATION,25,4,0,53,0,0,0,0,53,0,0
361944.3667,4846494.436,SEASONS HEALTHCARE,303 BROADWAY AVENUE SOUTH,TRIMONT,MN,56176,MARTIN,CORPORATION,0,0,0,33,0,0,0,0,33,0,0
495344.7176,4857521.717,PRAIRIE MANOR CARE CENTER,220 3RD STREET NW,BLOOMING PRAIRIE,MN,55917,STEELE,NONPROFIT CORPORATION,0,0,0,40,0,0,0,0,40,0,0
605560.8979,4878287.373,SAUER HEALTH CARE,1635 WEST SERVICE DRIVE,WINONA,MN,55987,WINONA,NONPROFIT CORPORATION,0,0,0,71,0,0,0,0,71,0,0
422097.1603,4906171.197,SO PSYCHIATRIC NF ST PETER,100 FREEMAN DRIVE,ST. PETER,MN,56082,NICOLLET,STATE,0,0,0,48,0,0,0,0,0,0,0
548868.9839,4838582.015,SPRING VALLEY CARE CENTER,800 MEMORIAL DRIVE,SPRING VALLEY,MN,55975,FILLMORE,NONPROFIT CORPORATION,0,0,0,50,0,0,0,0,50,0,0
403195.0222,4934670.525,OAK TERRACE HEALTH CARE CENTER,640 3RD STREET,GAYLORD,MN,55334,SIBLEY,LIMITED LIABILITY COMPANY,0,0,0,42,0,0,0,0,42,0,0
362377.2583,4905208.568,SLEEPY EYE CARE CENTER,1105 3RD AVENUE SW,SLEEPY EYE,MN,56085,BROWN,CHURCH RELATED,0,0,0,65,0,0,0,0,65,0,0
289174.9621,4831912.642,SOUTH SHORE CARE CENTER,1307 SOUTH SHORE DRIVE,WORTHINGTON,MN,56187,NOBLES,CORPORATION,0,0,0,54,0,0,0,0,54,0,0
500729.5622,4833733.851,SACRED HEART CARE CENTER INC,1200 12TH STREET SW,AUSTIN,MN,55912,MOWER,NONPROFIT CORPORATION,0,0,0,59,0,0,0,0,59,0,0
223609.7741,5132701.645,ST FRANCIS HOME,2400 ST FRANCIS DRIVE,BRECKENRIDGE,MN,56520,WILKIN,CHURCH RELATED,0,0,0,80,0,0,0,0,80,0,0
575880.8996,4915422.776,ST ELIZABETHS MEDICAL CENTER,1200 GRANT BOULEVARD WEST,WABASHA,MN,55981,WABASHA,CHURCH RELATED,25,0,0,100,0,0,0,0,100,0,0
468513.7036,4833791.455,ST JOHN'S LUTHERAN HOME,901 LUTHER PLACE,ALBERT LEA,MN,56007,FREEBORN,CHURCH RELATED,0,0,0,79,0,0,0,0,79,0,0
468522.9151,4833760.705,ST JOHN'S ON FOUNTAIN LAKE,1771 EAGLE VIEW CIRCLE,ALBERT LEA,MN,56007,FREEBORN,CHURCH RELATED,0,0,0,84,0,0,0,0,84,0,0
606197.1432,4878581.042,SAINT ANNE EXTENDED HEALTHCARE,1347 WEST BROADWAY STREET,WINONA,MN,55987,WINONA,CHURCH RELATED,0,0,0,109,0,0,0,0,109,0,0
479275.2465,4904109.344,THE EMERALDS AT FARIBAULT LLC,500 SOUTHEAST 1ST STREET,FARIBAULT,MN,55021,RICE,LIMITED LIABILITY COMPANY,0,0,0,90,0,0,0,0,90,0,0
343125.4561,4900050.754,ST JOHN LUTHERAN HOME,201 SOUTH COUNTY ROAD 5,SPRINGFIELD,MN,56087,BROWN,NONPROFIT CORPORATION,0,0,0,75,0,0,0,0,75,0,0
319983.7132,5113770.539,ST WILLIAMS LIVING CENTER,212 WEST SOO STREET BOX 30,PARKERS PRAIRIE,MN,56361,OTTER TAIL,NONPROFIT CORPORATION,0,0,0,53,0,0,0,0,53,0,0
540804.2691,4877216.995,ROCHESTER WEST HEALTH SVCS,2215 HIGHWAY 52 NORTH,ROCHESTER,MN,55901,OLMSTED,LIMITED LIABILITY COMPANY,0,0,0,48,0,0,0,0,48,0,0
501759.4193,4833388.603,ST MARK'S LIVING,400 15TH AVENUE SW,AUSTIN,MN,55912,MOWER,CHURCH RELATED,0,0,0,57,0,0,0,0,57,0,0
411549.3034,4830991.704,ST LUKES LUTHERAN CARE CENTER,1219 SOUTH RAMSEY STREET,BLUE EARTH,MN,56013,FARIBAULT,NONPROFIT CORPORATION,0,0,0,79,0,0,0,0,79,0,0
404784.7686,5049444.915,ST BENEDICTS SENIOR COMMUNITY,990 19TH STREET SOUTH,SARTELL,MN,56377,STEARNS,NONPROFIT CORPORATION,0,0,0,24,0,0,0,0,24,0,0
476863.7511,5081289.136,ST CLARE LVG COMMUNITY OF MORA,110 NORTH 7TH STREET,MORA,MN,55051,KANABEC,NONPROFIT CORPORATION,0,0,0,65,0,0,0,0,65,0,0
438310.0892,4988724.194,THE ESTATES AT DELANO LLC,433 COUNTY ROAD 30,DELANO,MN,55328,WRIGHT,LIMITED LIABILITY COMPANY,0,0,0,46,0,0,0,0,46,0,0
514297.3803,4988832.595,THE ESTATES AT GREELEY LLC,313 SOUTH GREELEY STREET,STILLWATER,MN,550827007,WASHINGTON,LIMITED LIABILITY COMPANY,0,0,0,74,0,0,0,0,74,0,0
471391.0969,4834112.812,THORNE CREST RETIREMENT CENTER,1201 GARFIELD AVENUE,ALBERT LEA,MN,56007,FREEBORN,NONPROFIT CORPORATION,0,0,0,52,0,0,0,0,52,0,0
514931.6821,4989477.218,THE ESTATES AT LINDEN LLC,105 WEST LINDEN STREET,STILLWATER,MN,550824822,WASHINGTON,LIMITED LIABILITY COMPANY,0,0,0,71,0,0,0,0,71,0,0
265842.0732,5332544.522,THIEF RIVER CARE CENTER,2001 EASTWOOD DRIVE,THIEF RIVER FALLS,MN,56701,PENNINGTON,NONPROFIT CORPORATION,0,0,0,70,0,0,0,0,70,0,0
267107.6239,5195991.664,SUNNYSIDE CARE CENTER,16561 US HIGHWAY 10,LAKE PARK,MN,56554,BECKER,COUNTY,0,0,0,30,0,0,0,0,30,0,0
565731.9561,4890799.591,THE GREEN PRAIRIE REHAB CTR,800 2ND AVENUE NW,PLAINVIEW,MN,55964,WABASHA,LIMITED LIABILITY COMPANY,0,0,0,50,0,0,0,0,50,0,0
610688.5714,4823908.065,TWEETEN LUTHERAN HEALTH C C,125 5TH AVENUE SE,SPRING GROVE,MN,55974,HOUSTON,NONPROFIT CORPORATION,0,0,0,50,0,0,0,0,50,0,0
229053.4691,4824724.809,TUFF MEMORIAL HOME,505 EAST 4TH STREET,HILLS,MN,56138,ROCK,CHURCH RELATED,0,0,0,50,0,0,0,0,50,0,0
385022.0571,4854163.69,TRUMAN SENIOR LIVING,400 NORTH 4TH AVENUE EAST,TRUMAN,MN,56088,MARTIN,NONPROFIT CORPORATION,0,0,0,40,0,0,0,0,40,0,0
319409.0479,4899212.245,VALLEY VIEW MANOR HCC,200 EAST 9TH AVENUE,LAMBERTON,MN,56152,REDWOOD,CITY,0,0,0,50,0,0,0,0,50,0,0
615731.207,4846542.596,VALLEY VIEW HEALTHCARE & REHAB,510 EAST CEDAR STREET,HOUSTON,MN,55943,HOUSTON,NONPROFIT CORPORATION,0,0,0,45,0,0,0,0,45,0,0
320726.067,4919269.696,WABASSO REHAB & HCC,660 MAPLE STREET,WABASSO,MN,56293,REDWOOD,LIMITED LIABILITY COMPANY,0,0,0,44,0,0,0,0,44,0,0
238790.9375,5171730.084,VALLEY CARE AND REHAB LLC,600 5TH STREET SE,BARNESVILLE,MN,56514,CLAY,LIMITED LIABILITY COMPANY,0,0,0,35,0,0,0,0,35,0,0
228659.6012,5077957.901,TRAVERSE CARE CENTER,303 7TH STREET SOUTH,WHEATON,MN,56296,TRAVERSE,OTHER NONPROFIT OWNERSHIP,0,0,0,49,0,0,0,0,49,0,0
231017.123,5297705.069,VILLA ST. VINCENT,516 WALSH STREET,CROOKSTON,MN,56716,POLK,CHURCH RELATED,0,0,0,104,0,0,0,0,104,0,0
332940.5443,4933332.882,WOOD DALE HOME INC,600 SUNRISE BOULEVARD,REDWOOD FALLS,MN,56283,REDWOOD,CORPORATION,0,0,0,36,0,0,0,0,36,0,0
438365.9757,4941283.564,THE LUTHERAN HOME BELLE PLAINE,611 WEST MAIN STREET,BELLE PLAINE,MN,56011,SCOTT,LIMITED LIABILITY COMPANY,0,0,0,97,0,0,0,0,97,0,0
271515.4507,5052463.965,WEST WIND VILLAGE,1001 SCOTTS AVENUE,MORRIS,MN,56267,STEVENS,NONPROFIT CORPORATION,0,0,0,72,0,0,0,0,72,0,0
575427.7966,4869220.543,WHITEWATER HEALTH SERVICES,525 BLUFF AVENUE,ST. CHARLES,MN,55972,WINONA,LIMITED LIABILITY COMPANY,0,0,0,45,0,0,0,0,45,0,0
328513.0121,5419810.002,WARROAD CARE CENTER,1401 LAKE STREET NORTHWEST,WARROAD,MN,56763,ROSEAU,NONPROFIT CORPORATION,0,0,0,49,0,0,0,0,49,0,0
252577.1449,5219559.836,VIKING MANOR NURSING HOME,317 1ST STREET NW,ULEN,MN,56585,CLAY,CITY,0,0,0,45,0,0,0,0,45,0,0
502533.0791,4964032.864,NORRIS SQUARE,6993 80TH STREET SOUTH,COTTAGE GROVE,MN,55016,WASHINGTON,NONPROFIT CORPORATION,0,0,0,78,0,0,0,0,78,0,0
468349.3199,4962696.949,PRAIRIE BLUFFS TCU LLC,10300 HENNEPIN TOWN ROAD,EDEN PRAIRIE,MN,55347,HENNEPIN,LIMITED LIABILITY COMPANY,0,0,0,16,0,0,0,0,0,0,0
